{"type": "FeatureCollection", "features": [{"type": "Feature", "properties": {"norad_id": 50032, "name": "COSMOS 1408 DEB", "group": "cosmos-1408-debris", "lat": -82.152023658577, "lon": -18.048089113341334, "alt_km": 435.2469272600056, "timestamp": "2025-12-17T19:34:08.309084+00:00", "meta": {"OBJECT_NAME": "COSMOS 1408 DEB", "OBJECT_ID": "1982-092RU", "EPOCH": "2025-12-17T04:24:39.781728", "MEAN_MOTION": 15.45739221, "ECCENTRICITY": 0.00156718, "INCLINATION": 82.5644, "RA_OF_ASC_NODE": 53.9544, "ARG_OF_PERICENTER": 191.7803, "MEAN_ANOMALY": 168.3082, "EPHEMERIS_TYPE": 0, "CLASSIFICATION_TYPE": "U", "NORAD_CAT_ID": 50032, "ELEMENT_SET_NO": 999, "REV_AT_EPOCH": 22672, "BSTAR": 8.9414355e-05, "MEAN_MOTION_DOT": 4.382e-05, "MEAN_MOTION_DDOT": 0}, "tle": {"line1": "1 50032U 82092RU  25351.18379377  .00004382  00000+0  89414-4 0  9998", "line2": "2 50032  82.5644  53.9544 0015671 191.7803 168.3082 15.45739221226726"}}, "geometry": {"type": "Point", "coordinates": [-18.048089113341334, -82.152023658577]}}, {"type": "Feature", "properties": {"norad_id": 50058, "name": "COSMOS 1408 DEB", "group": "cosmos-1408-debris", "lat": 82.2267684617883, "lon": 172.14929753748785, "alt_km": 356.7228094945276, "timestamp": "2025-12-17T19:34:08.309105+00:00", "meta": {"OBJECT_NAME": "COSMOS 1408 DEB", "OBJECT_ID": "1982-092SW", "EPOCH": "2025-12-17T05:21:35.774208", "MEAN_MOTION": 15.64375305, "ECCENTRICITY": 0.00162314, "INCLINATION": 82.6132, "RA_OF_ASC_NODE": 64.6489, "ARG_OF_PERICENTER": 83.6541, "MEAN_ANOMALY": 276.6566, "EPHEMERIS_TYPE": 0, "CLASSIFICATION_TYPE": "U", "NORAD_CAT_ID": 50058, "ELEMENT_SET_NO": 999, "REV_AT_EPOCH": 22874, "BSTAR": 0.0002855242, "MEAN_MOTION_DOT": 0.00027578, "MEAN_MOTION_DDOT": 0}, "tle": {"line1": "1 50058U 82092SW  25351.22333072  .00027578  00000+0  28552-3 0  9990", "line2": "2 50058  82.6132  64.6489 0016231  83.6541 276.6566 15.64375305228749"}}, "geometry": {"type": "Point", "coordinates": [172.14929753748785, 82.2267684617883]}}, {"type": "Feature", "properties": {"norad_id": 50404, "name": "COSMOS 1408 DEB", "group": "cosmos-1408-debris", "lat": 8.977472878643688, "lon": -148.9257092784189, "alt_km": 640.4283780593323, "timestamp": "2025-12-17T19:34:08.309119+00:00", "meta": {"OBJECT_NAME": "COSMOS 1408 DEB", "OBJECT_ID": "1982-092ADS", "EPOCH": "2025-12-17T02:05:05.919648", "MEAN_MOTION": 15.14463504, "ECCENTRICITY": 0.01702579, "INCLINATION": 82.2039, "RA_OF_ASC_NODE": 210.5807, "ARG_OF_PERICENTER": 184.002, "MEAN_ANOMALY": 175.9865, "EPHEMERIS_TYPE": 0, "CLASSIFICATION_TYPE": "U", "NORAD_CAT_ID": 50404, "ELEMENT_SET_NO": 999, "REV_AT_EPOCH": 21259, "BSTAR": 0.0024996943, "MEAN_MOTION_DOT": 0.00066739, "MEAN_MOTION_DDOT": 0}, "tle": {"line1": "1 50404U 82092ADS 25351.08687407  .00066739  00000+0  24997-2 0  9993", "line2": "2 50404  82.2039 210.5807 0170257 184.0020 175.9865 15.14463504212592"}}, "geometry": {"type": "Point", "coordinates": [-148.9257092784189, 8.977472878643688]}}, {"type": "Feature", "properties": {"norad_id": 50621, "name": "COSMOS 1408 DEB", "group": "cosmos-1408-debris", "lat": -27.41407202347841, "lon": 65.01520797579764, "alt_km": 421.0669500725289, "timestamp": "2025-12-17T19:34:08.309130+00:00", "meta": {"OBJECT_NAME": "COSMOS 1408 DEB", "OBJECT_ID": "1982-092ALR", "EPOCH": "2025-12-16T20:32:59.843616", "MEAN_MOTION": 15.56878541, "ECCENTRICITY": 0.00289885, "INCLINATION": 82.5705, "RA_OF_ASC_NODE": 69.8949, "ARG_OF_PERICENTER": 137.3743, "MEAN_ANOMALY": 222.9769, "EPHEMERIS_TYPE": 0, "CLASSIFICATION_TYPE": "U", "NORAD_CAT_ID": 50621, "ELEMENT_SET_NO": 999, "REV_AT_EPOCH": 22314, "BSTAR": 0.00031797579, "MEAN_MOTION_DOT": 0.00023354, "MEAN_MOTION_DDOT": 0}, "tle": {"line1": "1 50621U 82092ALR 25350.85624819  .00023354  00000+0  31798-3 0  9990", "line2": "2 50621  82.5705  69.8949 0028988 137.3743 222.9769 15.56878541223140"}}, "geometry": {"type": "Point", "coordinates": [65.01520797579764, -27.41407202347841]}}]}